{
  "norad_id": 63329,
  "name": "STARLINK-33674",
  "history": [
    {
      "epoch": "2026-03-28T19:52:29.716608Z",
      "apogee_km": 484.3016900041557,
      "perigee_km": 481.663452306655,
      "latitude_deg": 2.6013657435131176e-05,
      "longitude_deg": 158.46333863391416,
      "height_km": 482.39734669957835,
      "semi_major_axis_km": 6861.1195711554055,
      "eccentricity": 0.00019226,
      "inclination_deg": 42.9965,
      "raan_deg": 282.8301,
      "arg_perigee_deg": 285.9251,
      "mean_anomaly_deg": 74.1389,
      "mean_motion_rev_day": 15.27602217
    }
  ]
}